BEIDOU-2 IGSO-1 (C06)   
1 36828U 10036A   26147.46685914 -.00000034  00000+0  00000+0 0  9996
2 36828  54.2985 163.1463 0058783 225.0151 132.4646  1.00280750 57880
BEIDOU-2 G4 (C04)       
1 37210U 10057A   26147.68303833 -.00000106  00000+0  00000+0 0  9996
2 37210   3.5984  69.0716 0005232 207.7411  14.3114  1.00272183 57085
BEIDOU-2 IGSO-2 (C07)   
1 37256U 10068A   26144.72062291 -.00000240  00000+0  00000+0 0  9999
2 37256  47.5917 272.1217 0054627 212.0033 124.4313  1.00291178 56553
BEIDOU-2 IGSO-3 (C08)   
1 37384U 11013A   26145.76373632 -.00000214  00000+0  00000+0 0  9992
2 37384  62.3785  40.3624 0034310 185.2094  40.8863  1.00273335 55437
BEIDOU-2 IGSO-4 (C09)   
1 37763U 11038A   26147.52701374  .00000056  00000+0  00000+0 0  9997
2 37763  54.5948 165.8560 0158606 231.3856 129.9775  1.00289039 54447
BEIDOU-2 IGSO-5 (C10)   
1 37948U 11073A   26147.31306150 -.00000223  00000+0  00000+0 0  9998
2 37948  47.7169 271.8022 0112379 220.8848 316.5418  1.00254205 52929
BEIDOU-2 G5 (C05)       
1 38091U 12008A   26147.73420234  .00000062  00000+0  00000+0 0  9993
2 38091   3.5252  69.8245 0010659 272.7969 225.7351  1.00275998 52167
BEIDOU-2 M3 (C11)       
1 38250U 12018A   26147.24732582 -.00000096  00000+0  00000+0 0  9997
2 38250  55.7763 305.5799 0019691 275.6550  84.0951  1.86229596 95556
BEIDOU-2 M4 (C12)       
1 38251U 12018B   26147.17959287 -.00000096  00000+0  00000+0 0  9993
2 38251  55.6760 304.7978 0010887 279.1904  80.6607  1.86229248 95557
BEIDOU-2 M6 (C14)       
1 38775U 12050B   26145.27851899 -.00000078  00000+0  00000+0 0  9999
2 38775  56.5251  63.6516 0014149 353.6619   6.3126  1.86230917 92887
BEIDOU-2 G6 (C02)       
1 38953U 12059A   26147.88179784 -.00000168  00000+0  00000+0 0  9991
2 38953   4.3725  73.7395 0010443 323.6236 249.5185  1.00269689 49707
BEIDOU-3S IGSO-1S (C31) 
1 40549U 15019A   26146.88545025 -.00000192  00000+0  00000+0 0  9995
2 40549  49.2353 295.7149 0038103 190.1163 170.5294  1.00255071 40860
BEIDOU-3S M2S (C58)     
1 40748U 15037A   26147.38229648 -.00000098  00000+0  00000+0 0  9997
2 40748  54.8898 302.7613 0007617 263.7885  96.0973  1.86231864 73732
BEIDOU-3S M1S (C57)     
1 40749U 15037B   26147.05534341 -.00000097  00000+0  00000+0 0  9990
2 40749  54.8868 302.7610 0003883  58.7556 301.2559  1.86254938 73733
BEIDOU-3S IGSO-2S (C56) 
1 40938U 15053A   26147.78622338 -.00000172  00000+0  00000+0 0  9996
2 40938  49.2531 259.0235 0064700 191.7201 173.7177  1.00264416 39159
BEIDOU-2 IGSO-6 (C13)   
1 41434U 16021A   26147.66964900 -.00000177  00000+0  00000+0 0  9990
2 41434  60.1982  38.2425 0057516 232.1052 309.9269  1.00263563 37270
BEIDOU-2 G7 (C03)       
1 41586U 16037A   26147.74451571 -.00000347  00000+0  00000+0 0  9998
2 41586   1.6717  69.1578 0007131 356.5485 198.1324  1.00275273  6687
BEIDOU-3 M1 (C19)       
1 43001U 17069A   26147.19172128 -.00000090  00000+0  00000+0 0  9990
2 43001  56.6751  63.7752 0011204 322.9136  36.9999  1.86231225 58215
BEIDOU-3 M2 (C20)       
1 43002U 17069B   26144.98259049 -.00000074  00000+0  00000+0 0  9995
2 43002  56.6725  63.8844 0009764 345.8750  14.0905  1.86230565 58168
BEIDOU-3 M7 (C27)       
1 43107U 18003A   26147.40906865 -.00000099  00000+0  00000+0 0  9992
2 43107  54.3469 303.0383 0005206  89.6058 270.4269  1.86227962 56966
BEIDOU-3 M8 (C28)       
1 43108U 18003B   26147.35415990 -.00000099  00000+0  00000+0 0  9991
2 43108  54.3402 303.0221 0002203 269.9431  90.0047  1.86230969 56979
BEIDOU-3 M4 (C22)       
1 43207U 18018A   26145.11218105 -.00000075  00000+0  00000+0 0  9992
2 43207  56.6323  63.9085 0007919  10.8909 349.1186  1.86231187 56311
BEIDOU-3 M3 (C21)       
1 43208U 18018B   26145.71559384 -.00000081  00000+0  00000+0 0  9993
2 43208  56.6322  63.8926 0009521 335.5647  24.3816  1.86231136 56328
BEIDOU-3 M9 (C29)       
1 43245U 18029A   26145.39635958 -.00000091  00000+0  00000+0 0  9993
2 43245  54.2150 300.7449 0000920 121.0024 238.9826  1.86228327 55473
BEIDOU-3 M10 (C30)      
1 43246U 18029B   26147.47866076 -.00000099  00000+0  00000+0 0  9990
2 43246  54.2109 300.6984 0004353  39.6866 320.3166  1.86229052 55494
BEIDOU-2 IGSO-7 (C16)   
1 43539U 18057A   26147.45966376 -.00000002  00000+0  00000+0 0  9992
2 43539  55.1911 163.2380 0104476 238.0011 120.6496  1.00257445 28914
BEIDOU-3 M5 (C23)       
1 43581U 18062A   26145.01805365  .00000061  00000+0  00000+0 0  9999
2 43581  54.0837 183.0913 0005265 288.8293  71.1823  1.86228616 53205
BEIDOU-3 M6 (C24)       
1 43582U 18062B   26146.49229889  .00000080  00000+0  00000+0 0  9995
2 43582  54.0837 183.0305 0004830  12.6596 347.4270  1.86227672 53236
BEIDOU-3 M12 (C26)      
1 43602U 18067A   26146.96765594  .00000086  00000+0  00000+0 0  9999
2 43602  54.1789 181.7599 0007798  30.6999 329.4209  1.86227740 52720
BEIDOU-3 M11 (C25)      
1 43603U 18067B   26147.10265738  .00000087  00000+0  00000+0 0  9993
2 43603  54.1759 181.7187 0004484  14.6553 345.4333  1.86227196 52752
BEIDOU-3 M13 (C32)      
1 43622U 18072A   26147.05758366 -.00000090  00000+0  00000+0 0  9993
2 43622  56.6078  63.3562 0008067 325.2119  34.7267  1.86231171 52264
BEIDOU-3 M14 (C33)      
1 43623U 18072B   26145.31216269 -.00000078  00000+0  00000+0 0  9998
2 43623  56.6077  63.4081 0006600 352.9890   6.9944  1.86231149 52229
BEIDOU-3 M16 (C35)      
1 43647U 18078A   26147.61561524 -.00000100  00000+0  00000+0 0  9998
2 43647  54.1094 300.7068 0007618  40.3946 319.6331  1.86232400 51773
BEIDOU-3 M15 (C34)      
1 43648U 18078B   26145.59712991 -.00000092  00000+0  00000+0 0  9990
2 43648  54.1072 300.7779 0004692  55.3023 304.7174  1.86232426 51756
BEIDOU-3 G1 (C59)       
1 43683U 18085A   26147.82560657 -.00000101  00000+0  00000+0 0  9996
2 43683   2.8188  97.9242 0008272 342.9972 261.6454  1.00271814 27855
BEIDOU-3 M17 (C36)      
1 43706U 18093A   26144.20755414  .00000050  00000+0  00000+0 0  9999
2 43706  54.1673 183.1096 0009837 291.2944 109.0036  1.86228425 51096
BEIDOU-3 M18 (C37)      
1 43707U 18093B   26147.23236120  .00000087  00000+0  00000+0 0  9994
2 43707  54.1682 182.9990 0007728 321.1594  38.8622  1.86226707 51145
BEIDOU-3 IGSO-1 (C38)   
1 44204U 19023A   26141.61780730 -.00000234  00000+0  00000+0 0  9993
2 44204  58.6591  37.9235 0025546 227.4594 312.4431  1.00299087  6947
BEIDOU-2 G8 (C01)       
1 44231U 19027A   26147.82248656 -.00000241  00000+0  00000+0 0  9990
2 44231   1.6087  74.4809 0010539 283.0008 328.4613  1.00268775 25874
BEIDOU-3 IGSO-2 (C39)   
1 44337U 19035A   26146.93378122 -.00000044  00000+0  00000+0 0  9990
2 44337  55.2421 159.0483 0039755 216.5971 324.9930  1.00274571 25455
BEIDOU-3 M24 (C46)      
1 44542U 19061A   26147.30127628  .00000087  00000+0  00000+0 0  9998
2 44542  54.3949 183.4322 0008241   0.0366   0.0413  1.86229067 45400
BEIDOU-3 M23 (C45)      
1 44543U 19061B   26147.69690507  .00000089  00000+0  00000+0 0  9994
2 44543  54.3935 183.3870 0005471 340.0590 196.9929  1.86227379 45413
BEIDOU-3 IGSO-3 (C40)   
1 44709U 19073A   26136.81046384 -.00000217  00000+0  00000+0 0  9995
2 44709  54.8566 281.2355 0042953 189.4588 170.3676  1.00246251 24144
BEIDOU-3 M22 (C44)      
1 44793U 19078A   26144.99290991 -.00000088  00000+0  00000+0 0  9992
2 44793  53.9582 300.6429 0006925  49.8976 310.1398  1.86227031 44216
BEIDOU-3 M21 (C43)      
1 44794U 19078B   26147.81768319 -.00000100  00000+0  00000+0 0  9996
2 44794  53.9277 300.5048 0004797  48.2070 311.8048  1.86227616 44272
BEIDOU-3 M19 (C41)      
1 44864U 19090A   26147.80997142 -.00000091  00000+0  00000+0 0  9994
2 44864  56.5425  63.4634 0018486 297.4650 254.5430  1.86231563 43859
BEIDOU-3 M20 (C42)      
1 44865U 19090B   26145.50549531 -.00000080  00000+0  00000+0 0  9993
2 44865  56.5420  63.5740 0016584 310.7318 225.8405  1.86231466 43799
BEIDOU-3 G2 (C60)       
1 45344U 20017A   26147.78203413 -.00000134  00000+0  00000+0 0  9995
2 45344   2.8250  47.0613 0002677  14.7471 185.0928  1.00271233 23058
BEIDOU-3 G3 (C61)       
1 45807U 20040A   26147.74451571 -.00000347  00000+0  00000+0 0  9997
2 45807   2.3994  67.4113 0003296 338.5321 217.8709  1.00267613 21867
BEIDOU-3 G4 (C62)       
1 56564U 23066A   26147.82161990 -.00000274  00000+0  00000+0 0  9991
2 56564   0.5113 326.5915 0004014 167.9146 186.7215  1.00271585 11182
BEIDOU-3 M28 (C50)      
1 58654U 23207A   26145.74698356 -.00000083  00000+0  00000+0 0  9998
2 58654  55.7339  63.0599 0003864 337.3189  22.6561  1.86229741 16424
BEIDOU-3 M26 (C48)      
1 58655U 23207B   26147.15535039 -.00000091  00000+0  00000+0 0  9993
2 58655  55.7371  62.9989 0003919 314.3871  45.5723  1.86229800 16437
BEIDOU-3 M25 (C47)      
1 61186U 24168B   26147.51185785 -.00000099  00000+0  00000+0 0  9990
2 61186  54.4924 302.9600 0003014 311.1121  45.1493  1.86230282 11392
BEIDOU-3 M27 (C49)      
1 61187U 24168C   26147.58638649 -.00000099  00000+0  00000+0 0  9990
2 61187  54.4876 302.9404 0002068  47.3266 133.9248  1.86230356  8872
